[{"OBJECT_NAME":"GAOFEN-11 01","OBJECT_ID":"2018-063A","EPOCH":"2026-03-09T23:56:00.610656","MEAN_MOTION":15.52267028,"ECCENTRICITY":0.0003697,"INCLINATION":97.1408,"RA_OF_ASC_NODE":136.3151,"ARG_OF_PERICENTER":2.5809,"MEAN_ANOMALY":357.5463,"EPHEMERIS_TYPE":0,"CLASSIFICATION_TYPE":"U","NORAD_CAT_ID":43585,"ELEMENT_SET_NO":999,"REV_AT_EPOCH":42494,"BSTAR":0.00020074947,"MEAN_MOTION_DOT":0.00012103,"MEAN_MOTION_DDOT":0},{"OBJECT_NAME":"STARLINK-1212","OBJECT_ID":"2020-012AX","EPOCH":"2026-03-10T00:00:02.999808","MEAN_MOTION":15.52195676,"ECCENTRICITY":0.00060327,"INCLINATION":53.0499,"RA_OF_ASC_NODE":348.596,"ARG_OF_PERICENTER":115.9645,"MEAN_ANOMALY":356.8868,"EPHEMERIS_TYPE":0,"CLASSIFICATION_TYPE":"U","NORAD_CAT_ID":45223,"ELEMENT_SET_NO":999,"REV_AT_EPOCH":585,"BSTAR":0.0014830065,"MEAN_MOTION_DOT":0.00092073,"MEAN_MOTION_DDOT":0}]
